IRNSS-1A----------------
1 39199U 13034A   21248.12966153  .00000093  00000-0  00000-0 0  9994
2 39199  31.7963  89.7670 0019788 175.0060 181.4136  1.00273224 29850
IRNSS-1B----------------
1 39635U 14017A   21249.14980049  .00000112  00000-0  00000-0 0  9996
2 39635  29.3249 269.8308 0021767 190.3569 354.2650  1.00275913 27292
IRNSS-1C----------------
1 40269U 14061A   21249.58666062 -.00000168  00000-0  00000-0 0  9996
2 40269   2.4138 143.4953 0021289   2.9008 133.7885  1.00270961 25199
IRNSS-1D----------------
1 40547U 15018A   21249.47343512 -.00000271  00000-0  00000-0 0  9993
2 40547  29.1591 269.8835 0019897 190.9130 167.1955  1.00269888 23491
IRNSS-1E----------------
1 41241U 16003A   21249.47343512 -.00000288  00000-0  00000-0 0  9998
2 41241  29.3468  89.0701 0020882 177.2777   1.6982  1.00270137 20581
IRNSS-1F----------------
1 41384U 16015A   21249.52929113  .00000152  00000-0  00000-0 0  9991
2 41384   1.9597 180.5988 0017766 187.2944 200.8758  1.00267794 20170
IRNSS-1G----------------
1 41469U 16027A   21249.58083172 -.00000342  00000-0  00000-0 0  9992
2 41469   1.9282 184.1635 0005039 300.8760 199.4948  1.00271196 19682
IRNSS-1I----------------
1 43286U 18035A   21249.17491855  .00000099  00000-0  00000-0 0  9996
2 43286  29.2500 102.0091 0019383 178.4814 183.1388  1.00268995 12581
